[
    {
        "Altitude(m)": 556565.8429902056,
        "Argument of Periapsis(deg)": 0.026491964442854003,
        "Eccentricity": 0.0,
        "Inclination(deg)": 53.0,
        "Latitude(deg)": 38.1757670828392,
        "Longitude(deg)": 155.7137768087575,
        "Mean Anomaly(deg)": 129.45737147031033,
        "RAAN(deg)": 114.96057347411205,
        "Satellite Name": "Starlink Shell 1 511",
        "Satellite Number": 511,
        "Semi-Major Axis(m)": 6931778.249405717,
        "Time(s)": 760
    },
    {
        "Altitude(m)": 556482.4733187016,
        "Argument of Periapsis(deg)": 0.02684054292236524,
        "Eccentricity": 0.0,
        "Inclination(deg)": 53.0,
        "Latitude(deg)": 37.76846850379084,
        "Longitude(deg)": 156.2770940718391,
        "Mean Anomaly(deg)": 130.08420267386703,
        "RAAN(deg)": 114.96005470403459,
        "Satellite Name": "Starlink Shell 1 511",
        "Satellite Number": 511,
        "Semi-Major Axis(m)": 6931778.249405717,
        "Time(s)": 770
    },
    {
        "Altitude(m)": 556399.1739861076,
        "Argument of Periapsis(deg)": 0.027189121401876473,
        "Eccentricity": 0.0,
        "Inclination(deg)": 53.0,
        "Latitude(deg)": 37.358073317599334,
        "Longitude(deg)": 156.8337970053459,
        "Mean Anomaly(deg)": 130.71103387742383,
        "RAAN(deg)": 114.95953593395714,
        "Satellite Name": "Starlink Shell 1 511",
        "Satellite Number": 511,
        "Semi-Major Axis(m)": 6931778.249405717,
        "Time(s)": 780
    },
    {
        "Altitude(m)": 556316.0002611879,
        "Argument of Periapsis(deg)": 0.02753769988138771,
        "Eccentricity": 0.0,
        "Inclination(deg)": 53.0,
        "Latitude(deg)": 36.94465896276885,
        "Longitude(deg)": 157.38400638419293,
        "Mean Anomaly(deg)": 131.33786508098052,
        "RAAN(deg)": 114.95901716387964,
        "Satellite Name": "Starlink Shell 1 511",
        "Satellite Number": 511,
        "Semi-Major Axis(m)": 6931778.249405717,
        "Time(s)": 790
    },
    {
        "Altitude(m)": 556233.0075583769,
        "Argument of Periapsis(deg)": 0.02788627836089895,
        "Eccentricity": 0.0,
        "Inclination(deg)": 53.0,
        "Latitude(deg)": 36.52830117421565,
        "Longitude(deg)": 157.9278423511188,
        "Mean Anomaly(deg)": 131.96469628453724,
        "RAAN(deg)": 114.95849839380216,
        "Satellite Name": "Starlink Shell 1 511",
        "Satellite Number": 511,
        "Semi-Major Axis(m)": 6931778.249405717,
        "Time(s)": 800
    },
    {
        "Altitude(m)": 556150.2514093509,
        "Argument of Periapsis(deg)": 0.02823485684041019,
        "Eccentricity": 0.0,
        "Inclination(deg)": 53.0,
        "Latitude(deg)": 36.10907401058045,
        "Longitude(deg)": 158.4654247810912,
        "Mean Anomaly(deg)": 132.5915274880939,
        "RAAN(deg)": 114.95797962372471,
        "Satellite Name": "Starlink Shell 1 511",
        "Satellite Number": 511,
        "Semi-Major Axis(m)": 6931778.249405717,
        "Time(s)": 810
    },
    {
        "Altitude(m)": 556067.7874345162,
        "Argument of Periapsis(deg)": 0.028583435319921423,
        "Eccentricity": 0.0,
        "Inclination(deg)": 53.0,
        "Latitude(deg)": 35.68704988274565,
        "Longitude(deg)": 158.99687365734962,
        "Mean Anomaly(deg)": 133.21835869165065,
        "RAAN(deg)": 114.95746085364722,
        "Satellite Name": "Starlink Shell 1 511",
        "Satellite Number": 511,
        "Semi-Major Axis(m)": 6931778.249405717,
        "Time(s)": 820
    },
    {
        "Altitude(m)": 555985.6713144105,
        "Argument of Periapsis(deg)": 0.028932013799432665,
        "Eccentricity": 0.0,
        "Inclination(deg)": 53.0,
        "Latitude(deg)": 35.262299583387396,
        "Longitude(deg)": 159.5223079456118,
        "Mean Anomaly(deg)": 133.84518989520737,
        "RAAN(deg)": 114.95694208356976,
        "Satellite Name": "Starlink Shell 1 511",
        "Satellite Number": 511,
        "Semi-Major Axis(m)": 6931778.249405717,
        "Time(s)": 830
    },
    {
        "Altitude(m)": 555903.9587610275,
        "Argument of Periapsis(deg)": 0.029280592278943897,
        "Eccentricity": 0.0,
        "Inclination(deg)": 53.0,
        "Latitude(deg)": 34.83489231739479,
        "Longitude(deg)": 160.04184599160325,
        "Mean Anomaly(deg)": 134.4720210987641,
        "RAAN(deg)": 114.95642331349228,
        "Satellite Name": "Starlink Shell 1 511",
        "Satellite Number": 511,
        "Semi-Major Axis(m)": 6931778.249405717,
        "Time(s)": 840
    },
    {
        "Altitude(m)": 555822.7054890612,
        "Argument of Periapsis(deg)": 0.029629170758455132,
        "Eccentricity": 0.0,
        "Inclination(deg)": 53.0,
        "Latitude(deg)": 34.404895733011074,
        "Longitude(deg)": 160.55560592845964,
        "Mean Anomaly(deg)": 135.09885230232078,
        "RAAN(deg)": 114.9559045434148,
        "Satellite Name": "Starlink Shell 1 511",
        "Satellite Number": 511,
        "Semi-Major Axis(m)": 6931778.249405717,
        "Time(s)": 850
    },
    {
        "Altitude(m)": 555741.9671871284,
        "Argument of Periapsis(deg)": 0.02997774923796637,
        "Eccentricity": 0.0,
        "Inclination(deg)": 53.0,
        "Latitude(deg)": 33.972375953562356,
        "Longitude(deg)": 161.0637044124716,
        "Mean Anomaly(deg)": 135.7256835058775,
        "RAAN(deg)": 114.95538577333733,
        "Satellite Name": "Starlink Shell 1 511",
        "Satellite Number": 511,
        "Semi-Major Axis(m)": 6931778.249405717,
        "Time(s)": 860
    },
    {
        "Altitude(m)": 555661.799488944,
        "Argument of Periapsis(deg)": 0.030326327717477602,
        "Eccentricity": 0.0,
        "Inclination(deg)": 53.0,
        "Latitude(deg)": 33.53739760964052,
        "Longitude(deg)": 161.56625788905754,
        "Mean Anomaly(deg)": 136.3525147094342,
        "RAAN(deg)": 114.95486700325988,
        "Satellite Name": "Starlink Shell 1 511",
        "Satellite Number": 511,
        "Semi-Major Axis(m)": 6931778.249405717,
        "Time(s)": 870
    },
    {
        "Altitude(m)": 555582.2579444773,
        "Argument of Periapsis(deg)": 0.030674906196988847,
        "Eccentricity": 0.0,
        "Inclination(deg)": 53.0,
        "Latitude(deg)": 33.1000238716344,
        "Longitude(deg)": 162.0633813455258,
        "Mean Anomaly(deg)": 136.97934591299094,
        "RAAN(deg)": 114.95434823318237,
        "Satellite Name": "Starlink Shell 1 511",
        "Satellite Number": 511,
        "Semi-Major Axis(m)": 6931778.249405717,
        "Time(s)": 880
    },
    {
        "Altitude(m)": 555503.3979911094,
        "Argument of Periapsis(deg)": 0.031023484676500086,
        "Eccentricity": 0.0,
        "Inclination(deg)": 53.0,
        "Latitude(deg)": 32.660316482496555,
        "Longitude(deg)": 162.5551887525488,
        "Mean Anomaly(deg)": 137.60617711654768,
        "RAAN(deg)": 114.95382946310492,
        "Satellite Name": "Starlink Shell 1 511",
        "Satellite Number": 511,
        "Semi-Major Axis(m)": 6931778.249405717,
        "Time(s)": 890
    },
    {
        "Altitude(m)": 555425.2749247896,
        "Argument of Periapsis(deg)": 0.03137206315601132,
        "Eccentricity": 0.0,
        "Inclination(deg)": 53.0,
        "Latitude(deg)": 32.21833579065227,
        "Longitude(deg)": 163.04179351289247,
        "Mean Anomaly(deg)": 138.23300832010437,
        "RAAN(deg)": 114.95331069302745,
        "Satellite Name": "Starlink Shell 1 511",
        "Satellite Number": 511,
        "Semi-Major Axis(m)": 6931778.249405717,
        "Time(s)": 900
    },
    {
        "Altitude(m)": 555347.9438712355,
        "Argument of Periapsis(deg)": 0.03172064163552255,
        "Eccentricity": 0.0,
        "Inclination(deg)": 53.0,
        "Latitude(deg)": 31.774140782966974,
        "Longitude(deg)": 163.52330740406205,
        "Mean Anomaly(deg)": 138.85983952366112,
        "RAAN(deg)": 114.95279192294997,
        "Satellite Name": "Starlink Shell 1 511",
        "Satellite Number": 511,
        "Semi-Major Axis(m)": 6931778.249405717,
        "Time(s)": 910
    },
    {
        "Altitude(m)": 555271.4597571304,
        "Argument of Periapsis(deg)": 0.0320692201150338,
        "Eccentricity": 0.0,
        "Inclination(deg)": 53.0,
        "Latitude(deg)": 31.327789117688212,
        "Longitude(deg)": 163.99984104016525,
        "Mean Anomaly(deg)": 139.48667072721773,
        "RAAN(deg)": 114.9522731528725,
        "Satellite Name": "Starlink Shell 1 511",
        "Satellite Number": 511,
        "Semi-Major Axis(m)": 6931778.249405717,
        "Time(s)": 920
    },
    {
        "Altitude(m)": 555195.8772814422,
        "Argument of Periapsis(deg)": 0.032417798594545036,
        "Eccentricity": 0.0,
        "Inclination(deg)": 53.0,
        "Latitude(deg)": 30.879337157292948,
        "Longitude(deg)": 164.4715043396967,
        "Mean Anomaly(deg)": 140.1135019307745,
        "RAAN(deg)": 114.95175438279504,
        "Satellite Name": "Starlink Shell 1 511",
        "Satellite Number": 511,
        "Semi-Major Axis(m)": 6931778.249405717,
        "Time(s)": 930
    },
    {
        "Altitude(m)": 555121.2508867236,
        "Argument of Periapsis(deg)": 0.03276637707405627,
        "Eccentricity": 0.0,
        "Inclination(deg)": 53.0,
        "Latitude(deg)": 30.428840001180728,
        "Longitude(deg)": 164.93840548596185,
        "Mean Anomaly(deg)": 140.74033313433125,
        "RAAN(deg)": 114.95123561271754,
        "Satellite Name": "Starlink Shell 1 511",
        "Satellite Number": 511,
        "Semi-Major Axis(m)": 6931778.249405717,
        "Time(s)": 940
    }
]